[{"OBJECT_NAME":"GOES 1 (SMS-C)","OBJECT_ID":"1975-100A","EPOCH":"2026-04-05T03:35:53.589120","MEAN_MOTION":1.00244694,"ECCENTRICITY":0.00047373,"INCLINATION":4.7936,"RA_OF_ASC_NODE":278.3748,"ARG_OF_PERICENTER":2.52,"MEAN_ANOMALY":202.3513,"EPHEMERIS_TYPE":0,"CLASSIFICATION_TYPE":"U","NORAD_CAT_ID":8366,"ELEMENT_SET_NO":999,"REV_AT_EPOCH":18433,"BSTAR":0,"MEAN_MOTION_DOT":3.1e-7,"MEAN_MOTION_DDOT":0},{"OBJECT_NAME":"GOES 2","OBJECT_ID":"1977-048A","EPOCH":"2026-04-05T05:58:17.176224","MEAN_MOTION":0.99399916,"ECCENTRICITY":0.00137195,"INCLINATION":6.5939,"RA_OF_ASC_NODE":293.9791,"ARG_OF_PERICENTER":51.6239,"MEAN_ANOMALY":312.6531,"EPHEMERIS_TYPE":0,"CLASSIFICATION_TYPE":"U","NORAD_CAT_ID":10061,"ELEMENT_SET_NO":999,"REV_AT_EPOCH":4555,"BSTAR":0,"MEAN_MOTION_DOT":-5.3e-7,"MEAN_MOTION_DDOT":0},{"OBJECT_NAME":"GOES 3","OBJECT_ID":"1978-062A","EPOCH":"2026-04-05T04:26:33.730368","MEAN_MOTION":0.99358697,"ECCENTRICITY":0.00020806,"INCLINATION":7.0679,"RA_OF_ASC_NODE":299.8456,"ARG_OF_PERICENTER":7.469,"MEAN_ANOMALY":6.977,"EPHEMERIS_TYPE":0,"CLASSIFICATION_TYPE":"U","NORAD_CAT_ID":10953,"ELEMENT_SET_NO":999,"REV_AT_EPOCH":12781,"BSTAR":0,"MEAN_MOTION_DOT":1.0e-6,"MEAN_MOTION_DDOT":0},{"OBJECT_NAME":"GOES 4","OBJECT_ID":"1980-074A","EPOCH":"2026-04-05T05:05:07.531008","MEAN_MOTION":0.99233182,"ECCENTRICITY":0.00327,"INCLINATION":8.1437,"RA_OF_ASC_NODE":303.5126,"ARG_OF_PERICENTER":104.5317,"MEAN_ANOMALY":49.9611,"EPHEMERIS_TYPE":0,"CLASSIFICATION_TYPE":"U","NORAD_CAT_ID":11964,"ELEMENT_SET_NO":999,"REV_AT_EPOCH":12671,"BSTAR":0,"MEAN_MOTION_DOT":-9.1e-7,"MEAN_MOTION_DDOT":0},{"OBJECT_NAME":"GOES 5","OBJECT_ID":"1981-049A","EPOCH":"2026-04-05T03:43:52.823136","MEAN_MOTION":1.0020651,"ECCENTRICITY":0.00040991,"INCLINATION":9.49,"RA_OF_ASC_NODE":316.1477,"ARG_OF_PERICENTER":343.1093,"MEAN_ANOMALY":214.2804,"EPHEMERIS_TYPE":0,"CLASSIFICATION_TYPE":"U","NORAD_CAT_ID":12472,"ELEMENT_SET_NO":999,"REV_AT_EPOCH":12211,"BSTAR":0,"MEAN_MOTION_DOT":-1.54e-6,"MEAN_MOTION_DDOT":0},{"OBJECT_NAME":"GOES 6","OBJECT_ID":"1983-041A","EPOCH":"2026-04-05T05:20:58.509888","MEAN_MOTION":1.00220973,"ECCENTRICITY":0.00017091,"INCLINATION":10.3077,"RA_OF_ASC_NODE":321.7038,"ARG_OF_PERICENTER":311.442,"MEAN_ANOMALY":245.0498,"EPHEMERIS_TYPE":0,"CLASSIFICATION_TYPE":"U","NORAD_CAT_ID":14050,"ELEMENT_SET_NO":999,"REV_AT_EPOCH":21528,"BSTAR":0,"MEAN_MOTION_DOT":-3.4e-7,"MEAN_MOTION_DDOT":0},{"OBJECT_NAME":"GOES 7","OBJECT_ID":"1987-022A","EPOCH":"2026-04-04T10:14:39.046848","MEAN_MOTION":0.99907334,"ECCENTRICITY":0.00040588,"INCLINATION":12.9934,"RA_OF_ASC_NODE":338.1585,"ARG_OF_PERICENTER":24.865,"MEAN_ANOMALY":168.6782,"EPHEMERIS_TYPE":0,"CLASSIFICATION_TYPE":"U","NORAD_CAT_ID":17561,"ELEMENT_SET_NO":999,"REV_AT_EPOCH":12622,"BSTAR":0,"MEAN_MOTION_DOT":0,"MEAN_MOTION_DDOT":0},{"OBJECT_NAME":"GOES 8","OBJECT_ID":"1994-022A","EPOCH":"2026-04-03T23:34:38.525376","MEAN_MOTION":0.98906605,"ECCENTRICITY":0.00058518,"INCLINATION":14.3674,"RA_OF_ASC_NODE":14.2407,"ARG_OF_PERICENTER":25.8156,"MEAN_ANOMALY":163.3379,"EPHEMERIS_TYPE":0,"CLASSIFICATION_TYPE":"U","NORAD_CAT_ID":23051,"ELEMENT_SET_NO":999,"REV_AT_EPOCH":12339,"BSTAR":0,"MEAN_MOTION_DOT":-1.13e-6,"MEAN_MOTION_DDOT":0},{"OBJECT_NAME":"GOES 9","OBJECT_ID":"1995-025A","EPOCH":"2026-04-04T12:33:59.512608","MEAN_MOTION":0.98799732,"ECCENTRICITY":0.00027776,"INCLINATION":13.8983,"RA_OF_ASC_NODE":15.0896,"ARG_OF_PERICENTER":195.7774,"MEAN_ANOMALY":285.3709,"EPHEMERIS_TYPE":0,"CLASSIFICATION_TYPE":"U","NORAD_CAT_ID":23581,"ELEMENT_SET_NO":999,"REV_AT_EPOCH":11203,"BSTAR":0,"MEAN_MOTION_DOT":-1.64e-6,"MEAN_MOTION_DDOT":0},{"OBJECT_NAME":"GOES 10","OBJECT_ID":"1997-019A","EPOCH":"2026-04-04T03:49:38.799840","MEAN_MOTION":0.99127384,"ECCENTRICITY":0.00300222,"INCLINATION":13.0402,"RA_OF_ASC_NODE":21.6274,"ARG_OF_PERICENTER":239.6985,"MEAN_ANOMALY":317.4901,"EPHEMERIS_TYPE":0,"CLASSIFICATION_TYPE":"U","NORAD_CAT_ID":24786,"ELEMENT_SET_NO":999,"REV_AT_EPOCH":10533,"BSTAR":0,"MEAN_MOTION_DOT":-2.61e-6,"MEAN_MOTION_DDOT":0},{"OBJECT_NAME":"GOES 11","OBJECT_ID":"2000-022A","EPOCH":"2026-04-05T04:52:08.775840","MEAN_MOTION":0.99044849,"ECCENTRICITY":0.00050403,"INCLINATION":11.6488,"RA_OF_ASC_NODE":47.1361,"ARG_OF_PERICENTER":263.4836,"MEAN_ANOMALY":99.1741,"EPHEMERIS_TYPE":0,"CLASSIFICATION_TYPE":"U","NORAD_CAT_ID":26352,"ELEMENT_SET_NO":999,"REV_AT_EPOCH":5175,"BSTAR":0,"MEAN_MOTION_DOT":-2.87e-6,"MEAN_MOTION_DDOT":0},{"OBJECT_NAME":"GOES 12","OBJECT_ID":"2001-031A","EPOCH":"2026-04-05T03:17:10.384800","MEAN_MOTION":0.99140831,"ECCENTRICITY":0.00084751,"INCLINATION":12.0538,"RA_OF_ASC_NODE":37.8762,"ARG_OF_PERICENTER":302.5604,"MEAN_ANOMALY":72.8213,"EPHEMERIS_TYPE":0,"CLASSIFICATION_TYPE":"U","NORAD_CAT_ID":26871,"ELEMENT_SET_NO":999,"REV_AT_EPOCH":9004,"BSTAR":0,"MEAN_MOTION_DOT":-2.16e-6,"MEAN_MOTION_DDOT":0},{"OBJECT_NAME":"EWS-G1 (GOES 13)","OBJECT_ID":"2006-018A","EPOCH":"2026-04-05T01:08:30.225120","MEAN_MOTION":0.98784826,"ECCENTRICITY":0.00618899,"INCLINATION":4.3435,"RA_OF_ASC_NODE":77.2945,"ARG_OF_PERICENTER":275.0569,"MEAN_ANOMALY":297.853,"EPHEMERIS_TYPE":0,"CLASSIFICATION_TYPE":"U","NORAD_CAT_ID":29155,"ELEMENT_SET_NO":999,"REV_AT_EPOCH":4252,"BSTAR":0,"MEAN_MOTION_DOT":4.0e-7,"MEAN_MOTION_DDOT":0},{"OBJECT_NAME":"GOES 14","OBJECT_ID":"2009-033A","EPOCH":"2026-04-05T03:20:47.538240","MEAN_MOTION":1.0011195,"ECCENTRICITY":0.00018341,"INCLINATION":1.5015,"RA_OF_ASC_NODE":83.9263,"ARG_OF_PERICENTER":297.732,"MEAN_ANOMALY":44.8442,"EPHEMERIS_TYPE":0,"CLASSIFICATION_TYPE":"U","NORAD_CAT_ID":35491,"ELEMENT_SET_NO":999,"REV_AT_EPOCH":585,"BSTAR":0,"MEAN_MOTION_DOT":4.7e-7,"MEAN_MOTION_DDOT":0},{"OBJECT_NAME":"EWS-G2 (GOES 15)","OBJECT_ID":"2010-008A","EPOCH":"2026-04-05T02:46:43.304736","MEAN_MOTION":1.00271739,"ECCENTRICITY":0.00033664,"INCLINATION":1.0857,"RA_OF_ASC_NODE":84.291,"ARG_OF_PERICENTER":17.7221,"MEAN_ANOMALY":196.3649,"EPHEMERIS_TYPE":0,"CLASSIFICATION_TYPE":"U","NORAD_CAT_ID":36411,"ELEMENT_SET_NO":999,"REV_AT_EPOCH":5890,"BSTAR":0,"MEAN_MOTION_DOT":2.4e-7,"MEAN_MOTION_DDOT":0},{"OBJECT_NAME":"GOES 16","OBJECT_ID":"2016-071A","EPOCH":"2026-04-05T03:46:38.460576","MEAN_MOTION":1.00272286,"ECCENTRICITY":0.00018268,"INCLINATION":0.1747,"RA_OF_ASC_NODE":85.2956,"ARG_OF_PERICENTER":247.2132,"MEAN_ANOMALY":172.9164,"EPHEMERIS_TYPE":0,"CLASSIFICATION_TYPE":"U","NORAD_CAT_ID":41866,"ELEMENT_SET_NO":999,"REV_AT_EPOCH":3437,"BSTAR":0,"MEAN_MOTION_DOT":-9.0e-7,"MEAN_MOTION_DDOT":0},{"OBJECT_NAME":"GOES 17","OBJECT_ID":"2018-022A","EPOCH":"2026-04-05T03:12:38.783808","MEAN_MOTION":1.00271613,"ECCENTRICITY":0.00011925,"INCLINATION":0.7501,"RA_OF_ASC_NODE":86.7952,"ARG_OF_PERICENTER":259.4298,"MEAN_ANOMALY":165.8761,"EPHEMERIS_TYPE":0,"CLASSIFICATION_TYPE":"U","NORAD_CAT_ID":43226,"ELEMENT_SET_NO":999,"REV_AT_EPOCH":2969,"BSTAR":0,"MEAN_MOTION_DOT":-1.81e-6,"MEAN_MOTION_DDOT":0}]
