GOES 1 (SMS-C)          
1 08366U 75100A   26095.14992580  .00000031  00000+0  00000+0 0  9998
2 08366   4.7936 278.3748 0004737   2.5200 202.3513  1.00244694184338
GOES 2                  
1 10061U 77048A   26095.24880991 -.00000053  00000+0  00000+0 0  9994
2 10061   6.5939 293.9791 0013719  51.6239 312.6531  0.99399916 45554
GOES 3                  
1 10953U 78062A   26095.18511262  .00000100  00000+0  00000+0 0  9998
2 10953   7.0679 299.8456 0002080   7.4690   6.9770  0.99358697127812
GOES 4                  
1 11964U 80074A   26095.21189272 -.00000091  00000+0  00000+0 0  9993
2 11964   8.1437 303.5126 0032700 104.5317  49.9611  0.99233182126713
GOES 5                  
1 12472U 81049A   26095.15547249 -.00000154  00000+0  00000+0 0  9996
2 12472   9.4900 316.1477 0004099 343.1093 214.2804  1.00206510122117
GOES 6                  
1 14050U 83041A   26095.22289942 -.00000034  00000+0  00000+0 0  9992
2 14050  10.3077 321.7038 0001709 311.4420 245.0498  1.00220973215280
GOES 7                  
1 17561U 87022A   26094.42684082  .00000000  00000+0  00000+0 0  9992
2 17561  12.9934 338.1585 0004058  24.8650 168.6782  0.99907334126220
GOES 8                  
1 23051U 94022A   26093.98239034 -.00000113  00000+0  00000+0 0  9990
2 23051  14.3674  14.2407 0005851  25.8156 163.3379  0.98906605123395
GOES 9                  
1 23581U 95025A   26094.52360547 -.00000164  00000+0  00000+0 0  9993
2 23581  13.8983  15.0896 0002777 195.7774 285.3709  0.98799732112030
GOES 10                 
1 24786U 97019A   26094.15947685 -.00000261  00000+0  00000+0 0  9997
2 24786  13.0402  21.6274 0030022 239.6985 317.4901  0.99127384105330
GOES 11                 
1 26352U 00022A   26095.20287935 -.00000287  00000+0  00000+0 0  9996
2 26352  11.6488  47.1361 0005040 263.4836  99.1741  0.99044849 51757
GOES 12                 
1 26871U 01031A   26095.13692575 -.00000216  00000+0  00000+0 0  9997
2 26871  12.0538  37.8762 0008475 302.5604  72.8213  0.99140831 90043
EWS-G1 (GOES 13)        
1 29155U 06018A   26095.04757205  .00000040  00000+0  00000+0 0  9991
2 29155   4.3435  77.2945 0061889 275.0569 297.8530  0.98784826 42522
GOES 14                 
1 35491U 09033A   26095.13943910  .00000047  00000+0  00000+0 0  9998
2 35491   1.5015  83.9263 0001834 297.7320  44.8442  1.00111950  5855
EWS-G2 (GOES 15)        
1 36411U 10008A   26095.11577899  .00000024  00000+0  00000+0 0  9997
2 36411   1.0857  84.2910 0003366  17.7221 196.3649  1.00271739 58900
GOES 16                 
1 41866U 16071A   26095.15738959 -.00000090  00000+0  00000+0 0  9997
2 41866   0.1747  85.2956 0001826 247.2132 172.9164  1.00272286 34374
GOES 17                 
1 43226U 18022A   26095.13378222 -.00000181  00000+0  00000+0 0  9999
2 43226   0.7501  86.7952 0001192 259.4298 165.8761  1.00271613 29692
